INSAT-3D                
1 39216U 13038B   25130.47849566 -.00000327  00000+0  00000+0 0  9997
2 39216   0.8851  87.9529 0001106 297.1890 145.0987  1.00277676 43040
HIMAWARI-8              
1 40267U 14060A   25130.55216419 -.00000264  00000+0  00000+0 0  9995
2 40267   0.0557  89.2333 0000976 327.3528 151.4769  1.00271903 38713
FENGYUN 2G              
1 40367U 14090A   25130.40116117 -.00000288  00000+0  00000+0 0  9993
2 40367   4.6194  77.6963 0002830 127.3633 267.1518  1.00272261 37968
METEOSAT-11 (MSG-4)     
1 40732U 15034A   25130.59749497  .00000074  00000+0  00000+0 0  9993
2 40732   2.1961  72.3062 0001358 286.3975  94.3011  1.00268645  3186
ELEKTRO-L 2             
1 41105U 15074A   25130.59280344 -.00000103  00000+0  00000+0 0  9997
2 41105   5.6787  75.4757 0001661 242.1327 109.9655  1.00272106 34467
INSAT-3DR               
1 41752U 16054A   25130.53894089 -.00000066  00000+0  00000+0 0  9993
2 41752   0.0998  91.5194 0010386 182.6949 222.3814  1.00272391 31789
HIMAWARI-9              
1 41836U 16064A   25130.55216419 -.00000263  00000+0  00000+0 0  9993
2 41836   0.0156 113.6637 0001190 305.2394 149.2228  1.00271309 31173
GOES 16                 
1 41866U 16071A   25130.57768625 -.00000145  00000+0  00000+0 0  9996
2 41866   0.0527 268.0938 0001234 200.8721 237.0337  1.00127635 31067
CYGFM05                 
1 41884U 16078A   25130.05999052  .00014318  00000+0  35011-3 0  9996
2 41884  34.9618  12.6789 0011170 319.7309  40.2582 15.39866974466277
