[
  {
    "OBJECT_NAME": "INSAT-3D",
    "OBJECT_ID": "2013-038B",
    "EPOCH": "2025-05-10T11:29:02.025024",
    "MEAN_MOTION": 1.00277676,
    "ECCENTRICITY": 0.0001106,
    "INCLINATION": 0.8851,
    "RA_OF_ASC_NODE": 87.9529,
    "ARG_OF_PERICENTER": 297.189,
    "MEAN_ANOMALY": 145.0987,
    "EPHEMERIS_TYPE": 0,
    "CLASSIFICATION_TYPE": "U",
    "NORAD_CAT_ID": 39216,
    "ELEMENT_SET_NO": 999,
    "REV_AT_EPOCH": 4304,
    "BSTAR": 0,
    "MEAN_MOTION_DOT": -3.27e-06,
    "MEAN_MOTION_DDOT": 0
  },
  {
    "OBJECT_NAME": "HIMAWARI-8",
    "OBJECT_ID": "2014-060A",
    "EPOCH": "2025-05-10T13:15:06.986016",
    "MEAN_MOTION": 1.00271903,
    "ECCENTRICITY": 9.76e-05,
    "INCLINATION": 0.0557,
    "RA_OF_ASC_NODE": 89.2333,
    "ARG_OF_PERICENTER": 327.3528,
    "MEAN_ANOMALY": 151.4769,
    "EPHEMERIS_TYPE": 0,
    "CLASSIFICATION_TYPE": "U",
    "NORAD_CAT_ID": 40267,
    "ELEMENT_SET_NO": 999,
    "REV_AT_EPOCH": 3871,
    "BSTAR": 0,
    "MEAN_MOTION_DOT": -2.64e-06,
    "MEAN_MOTION_DDOT": 0
  },
  {
    "OBJECT_NAME": "FENGYUN 2G",
    "OBJECT_ID": "2014-090A",
    "EPOCH": "2025-05-10T09:37:40.325088",
    "MEAN_MOTION": 1.00272261,
    "ECCENTRICITY": 0.000283,
    "INCLINATION": 4.6194,
    "RA_OF_ASC_NODE": 77.6963,
    "ARG_OF_PERICENTER": 127.3633,
    "MEAN_ANOMALY": 267.1518,
    "EPHEMERIS_TYPE": 0,
    "CLASSIFICATION_TYPE": "U",
    "NORAD_CAT_ID": 40367,
    "ELEMENT_SET_NO": 999,
    "REV_AT_EPOCH": 3796,
    "BSTAR": 0,
    "MEAN_MOTION_DOT": -2.88e-06,
    "MEAN_MOTION_DDOT": 0
  },
  {
    "OBJECT_NAME": "METEOSAT-11 (MSG-4)",
    "OBJECT_ID": "2015-034A",
    "EPOCH": "2025-05-10T14:20:23.565408",
    "MEAN_MOTION": 1.00268645,
    "ECCENTRICITY": 0.0001358,
    "INCLINATION": 2.1961,
    "RA_OF_ASC_NODE": 72.3062,
    "ARG_OF_PERICENTER": 286.3975,
    "MEAN_ANOMALY": 94.3011,
    "EPHEMERIS_TYPE": 0,
    "CLASSIFICATION_TYPE": "U",
    "NORAD_CAT_ID": 40732,
    "ELEMENT_SET_NO": 999,
    "REV_AT_EPOCH": 318,
    "BSTAR": 0,
    "MEAN_MOTION_DOT": 7.4e-07,
    "MEAN_MOTION_DDOT": 0
  },
  {
    "OBJECT_NAME": "ELEKTRO-L 2",
    "OBJECT_ID": "2015-074A",
    "EPOCH": "2025-05-10T14:13:38.217216",
    "MEAN_MOTION": 1.00272106,
    "ECCENTRICITY": 0.0001661,
    "INCLINATION": 5.6787,
    "RA_OF_ASC_NODE": 75.4757,
    "ARG_OF_PERICENTER": 242.1327,
    "MEAN_ANOMALY": 109.9655,
    "EPHEMERIS_TYPE": 0,
    "CLASSIFICATION_TYPE": "U",
    "NORAD_CAT_ID": 41105,
    "ELEMENT_SET_NO": 999,
    "REV_AT_EPOCH": 3446,
    "BSTAR": 0,
    "MEAN_MOTION_DOT": -1.03e-06,
    "MEAN_MOTION_DDOT": 0
  },
  {
    "OBJECT_NAME": "INSAT-3DR",
    "OBJECT_ID": "2016-054A",
    "EPOCH": "2025-05-10T12:56:04.492896",
    "MEAN_MOTION": 1.00272391,
    "ECCENTRICITY": 0.0010386,
    "INCLINATION": 0.0998,
    "RA_OF_ASC_NODE": 91.5194,
    "ARG_OF_PERICENTER": 182.6949,
    "MEAN_ANOMALY": 222.3814,
    "EPHEMERIS_TYPE": 0,
    "CLASSIFICATION_TYPE": "U",
    "NORAD_CAT_ID": 41752,
    "ELEMENT_SET_NO": 999,
    "REV_AT_EPOCH": 3178,
    "BSTAR": 0,
    "MEAN_MOTION_DOT": -6.6e-07,
    "MEAN_MOTION_DDOT": 0
  },
  {
    "OBJECT_NAME": "HIMAWARI-9",
    "OBJECT_ID": "2016-064A",
    "EPOCH": "2025-05-10T13:15:06.986016",
    "MEAN_MOTION": 1.00271309,
    "ECCENTRICITY": 0.000119,
    "INCLINATION": 0.0156,
    "RA_OF_ASC_NODE": 113.6637,
    "ARG_OF_PERICENTER": 305.2394,
    "MEAN_ANOMALY": 149.2228,
    "EPHEMERIS_TYPE": 0,
    "CLASSIFICATION_TYPE": "U",
    "NORAD_CAT_ID": 41836,
    "ELEMENT_SET_NO": 999,
    "REV_AT_EPOCH": 3117,
    "BSTAR": 0,
    "MEAN_MOTION_DOT": -2.63e-06,
    "MEAN_MOTION_DDOT": 0
  },
  {
    "OBJECT_NAME": "GOES 16",
    "OBJECT_ID": "2016-071A",
    "EPOCH": "2025-05-10T13:51:52.092000",
    "MEAN_MOTION": 1.00127635,
    "ECCENTRICITY": 0.0001234,
    "INCLINATION": 0.0527,
    "RA_OF_ASC_NODE": 268.0938,
    "ARG_OF_PERICENTER": 200.8721,
    "MEAN_ANOMALY": 237.0337,
    "EPHEMERIS_TYPE": 0,
    "CLASSIFICATION_TYPE": "U",
    "NORAD_CAT_ID": 41866,
    "ELEMENT_SET_NO": 999,
    "REV_AT_EPOCH": 3106,
    "BSTAR": 0,
    "MEAN_MOTION_DOT": -1.45e-06,
    "MEAN_MOTION_DDOT": 0
  },
  {
    "OBJECT_NAME": "CYGFM05",
    "OBJECT_ID": "2016-078A",
    "EPOCH": "2025-05-10T01:26:23.180928",
    "MEAN_MOTION": 15.39866974,
    "ECCENTRICITY": 0.001117,
    "INCLINATION": 34.9618,
    "RA_OF_ASC_NODE": 12.6789,
    "ARG_OF_PERICENTER": 319.7309,
    "MEAN_ANOMALY": 40.2582,
    "EPHEMERIS_TYPE": 0,
    "CLASSIFICATION_TYPE": "U",
    "NORAD_CAT_ID": 41884,
    "ELEMENT_SET_NO": 999,
    "REV_AT_EPOCH": 46627,
    "BSTAR": 0.00035011,
    "MEAN_MOTION_DOT": 0.00014318,
    "MEAN_MOTION_DDOT": 0
  }
]